206P/Barnard-Boattini,e,33.6334,202.3424,189.4834,3.488131,0.1512916,0.55139335,33.5089,10/12.0/2021,2000,g 19.0,4.0
# From MPC 75725
207P/NEAT,e,10.1876,198.3233,273.0079,3.871980,0.1293613,0.75907813,251.0957,10/12.0/2021,2000,g 16.0,4.0
# From MPEC 2020-W26
208P/McMillan,e,4.4113,36.3424,310.4805,4.044719,0.1211634,0.37398428,233.2271,10/12.0/2021,2000,g 12.5,4.0
# From MPC 90771
209P/LINEAR,e,21.2555,62.7740,152.4588,2.959975,0.1935406,0.67302664,165.0082,10/12.0/2021,2000,g 17.0,2.0
# From MPC105242
210P/Christensen,e,10.2638,93.8273,345.8938,3.163960,0.1751288,0.83325283,96.6903,10/12.0/2021,2000,g 13.5,4.0
# From MPC 96868
211P/Hill,e,18.9212,117.1320,4.2682,3.545981,0.1476045,0.34347668,307.2173,10/12.0/2021,2000,g 12.5,4.0
# From MPEC 2021-F20
212P/NEAT,e,22.2219,98.2659,14.0796,3.890005,0.1284632,0.58789088,241.0055,10/12.0/2021,2000,g 17.0,2.0
# From MPC114608
213P/Van Ness,e,10.3822,311.2982,5.6634,3.347432,0.1609298,0.40827656,237.6662,10/12.0/2021,2000,g 10.5,4.0
# From MPC 92986
214P/LINEAR,e,15.1834,348.2490,190.2218,3.618430,0.1431937,0.48579531,309.9820,10/12.0/2021,2000,g 13.0,4.0
# From MPEC 2021-TD0
215P/NEAT,e,10.5802,56.6854,262.2195,4.328425,0.1094484,0.16673401,75.8448,10/12.0/2021,2000,g 12.6,4.0
# From MPC100284
216P/LINEAR,e,9.0621,359.8095,151.3712,3.867185,0.1296020,0.44708909,254.0882,10/12.0/2021,2000,g 13.0,4.0
# From MPEC 2021-N06
217P/LINEAR,e,12.8640,125.4735,246.8545,3.950224,0.1255369,0.68894114,194.2144,10/12.0/2021,2000,g 12.0,4.0
# From MPEC 2020-K19
218P/LINEAR,e,2.7277,175.9685,59.7302,3.092708,0.1812156,0.62213738,67.6319,10/12.0/2021,2000,g 16.0,4.0
# From MPC100284
219P/LINEAR,e,11.5336,230.9622,107.4628,3.649058,0.1413946,0.35407007,239.1964,10/12.0/2021,2000,g 11.0,4.0
# From MPEC 2021-BE3
220P/McNaught,e,8.1289,150.1012,180.5465,3.115942,0.1791926,0.50171671,54.7187,10/12.0/2021,2000,g 15.0,4.0
# From MPEC 2021-J28
221P/LINEAR,e,11.4276,229.7030,40.1145,3.455475,0.1534413,0.49264928,349.7090,10/12.0/2021,2000,g 14.5,4.0
# From MPC 92277
222P/LINEAR,e,5.0981,6.7772,346.2526,2.899260,0.1996519,0.71472108,171.6108,10/12.0/2021,2000,g 20.0,4.0
# From MPEC 2021-S45
223P/Skiff,e,27.0263,346.7706,37.8150,4.158945,0.1162062,0.41613532,114.8443,10/12.0/2021,2000,g 12.0,4.0
# From MPC 75727
224P/LINEAR-NEAT,e,13.2970,40.1107,16.6499,3.446571,0.1540363,0.40682310,305.6349,10/12.0/2021,2000,g 15.5,4.0
# From MPC 75727
225P/LINEAR,e,21.3639,14.1979,3.8746,3.649681,0.1413584,0.63821763,265.9756,10/12.0/2021,2000,g 18.0,4.0
# From MPC106349
226P/Pigott-LINEAR-Kowalski,e,44.0297,54.0032,341.0408,3.767213,0.1347950,0.52863800,251.2975,10/12.0/2021,2000,g 12.5,4.0
# From MPC102956
227P/Catalina-LINEAR,e,6.5941,46.2663,93.3624,3.540685,0.1479357,0.51853325,230.2716,10/12.0/2021,2000,g 16.5,2.0
# From MPEC 2020-L06
228P/LINEAR,e,7.9124,30.9814,115.1067,4.169944,0.1157467,0.17627757,67.3145,10/12.0/2021,2000,g 14.5,2.0
# From MPC106349
229P/Gibbs,e,26.0925,157.9116,223.9710,3.929025,0.1265543,0.37733569,202.9898,10/12.0/2021,2000,g 13.0,4.0
# From MPEC 2021-TD0
230P/LINEAR,e,15.4707,106.9913,313.4073,3.452980,0.1536077,0.54565581,335.6841,10/12.0/2021,2000,g 13.0,4.0
# From MPEC 2020-K19
231P/LINEAR-NEAT,e,12.3334,133.0159,43.6808,4.032527,0.1217133,0.24673291,103.1561,10/12.0/2021,2000,g 14.5,2.0
# From MPC112394
232P/Hill,e,14.6363,56.0153,53.3582,4.478557,0.1039913,0.33420789,95.7071,10/12.0/2021,2000,g 11.5,4.0
# From MPEC 2021-N06
233P/La Sagra,e,11.2844,74.9185,27.0214,3.029972,0.1868728,0.41182692,70.1521,10/12.0/2021,2000,g 15.0,4.0
# From MPC110497
234P/LINEAR,e,11.5330,179.5656,357.2301,3.799838,0.1330628,0.25511266,212.4852,10/12.0/2021,2000,g 12.0,4.0
# From MPC110497
235P/LINEAR,e,8.9775,203.1805,333.3730,3.958349,0.1251506,0.32545732,163.0903,10/12.0/2021,2000,g 12.0,4.0
# From MPC107688
236P/LINEAR,e,16.3393,245.6095,119.2507,3.729718,0.1368328,0.50910455,194.3683,10/12.0/2021,2000,g 14.0,4.0
# From MPC109593
237P/LINEAR,e,14.0152,245.3839,25.2329,3.512282,0.1497339,0.43441953,273.2209,10/12.0/2021,2000,g 14.5,2.0
# From MPC107688
238P/Read,e,1.2641,51.6283,324.3866,3.167955,0.1747976,0.25236692,318.5723,10/12.0/2021,2000,g 14.5,4.0
# From MPEC 2021-F20
239P/LINEAR,e,11.2972,255.9137,220.4322,4.469834,0.1042958,0.63004674,104.9874,10/12.0/2021,2000,g 17.5,2.0
# From MPEC 2021-F20
240P/NEAT,e,23.5144,74.9108,351.9494,3.866129,0.1296551,0.44912450,161.4730,10/12.0/2021,2000,g 12.1,4.0
# From MPEC 2021-TD0
241P/LINEAR,e,21.1072,305.4835,111.4285,4.915331,0.0904430,0.60988873,7.0701,10/12.0/2021,2000,g 13.5,4.0
# From MPEC 2021-S45
242P/Spahr,e,32.4974,180.4001,245.9078,5.486389,0.0766963,0.27822130,269.7327,10/12.0/2021,2000,g  8.0,4.0
# From MPC111774
243P/NEAT,e,7.6404,87.6325,283.5457,3.830734,0.1314562,0.36029897,150.1502,10/12.0/2021,2000,g 12.5,4.0
# From MPEC 2021-TD0
244P/Scotti,e,2.2593,353.9902,93.0076,4.894758,0.0910138,0.19891833,323.5423,10/12.0/2021,2000,g  9.0,4.0
# From MPEC 2020-K19
245P/WISE,e,21.1973,316.6482,316.8823,4.045080,0.1211472,0.45697628,162.5236,10/12.0/2021,2000,g 14.0,4.0
# From MPEC 2021-TD0
246P/NEAT,e,15.9803,78.7336,176.3937,4.020587,0.1222559,0.28761073,28.2160,10/12.0/2021,2000,g 10.5,4.0
# From MPEC 2021-F20
247P/LINEAR,e,13.6542,54.0115,47.4559,3.968923,0.1246508,0.62423122,130.3399,10/12.0/2021,2000,g 16.5,2.0
# From MPC 75730
248P/Gibbs,e,6.3495,207.7817,209.8548,5.991692,0.0672016,0.63846676,263.5759,10/12.0/2021,2000,g 14.0,4.0
# From MPEC 2021-S45
249P/LINEAR,e,8.3925,239.1508,65.6520,2.762930,0.2146097,0.82005952,100.7584,10/12.0/2021,2000,g 15.5,4.0
# From MPC110497
250P/Larson,e,13.1662,73.4750,46.1603,3.763610,0.1349886,0.40017949,182.6515,10/12.0/2021,2000,g 14.5,4.0
# From MPC104795
251P/LINEAR,e,23.3907,219.3714,31.2896,3.511173,0.1498048,0.50491728,232.0524,10/12.0/2021,2000,g 16.5,2.0
# From MPEC 2021-S45
252P/LINEAR,e,10.4099,190.9460,343.2969,3.049078,0.1851191,0.67187395,17.1617,10/12.0/2021,2000,g 17.5,4.0
# From MPEC 2020-FB5
253P/PANSTARRS,e,4.9435,146.8857,230.6404,3.466309,0.1527226,0.41408895,191.2545,10/12.0/2021,2000,g 14.5,4.0
# From MPEC 2021-TD0
254P/McNaught,e,32.5724,129.1748,219.5367,4.612643,0.0994900,0.31980054,37.5161,10/12.0/2021,2000,g 11.0,4.0
# From NK 2214
255P/Levy,e,13.4135,275.7705,185.9248,2.944619,0.1950565,0.71213562,295.5489,10/12.0/2021,2000,g  9.0,4.0
# From MPC 84027
256P/LINEAR,e,27.6240,81.3485,124.2430,4.638017,0.0986746,0.41800139,309.0413,10/12.0/2021,2000,g 14.0,2.0
# From MPEC 2021-S45
257P/Catalina,e,20.2221,207.7321,117.6719,3.762251,0.1350618,0.43042320,53.5182,10/12.0/2021,2000,g 11.5,4.0
# From MPEC 2021-N06
258P/PANSTARRS,e,6.7460,126.2474,25.9689,4.397840,0.1068673,0.20851671,51.3304,10/12.0/2021,2000,g 13.0,4.0
# From MPC106349
259P/Garradd,e,15.8908,51.4518,257.6466,2.730040,0.2184995,0.33859973,333.9087,10/12.0/2021,2000,g 15.5,4.0
# From MPEC 2020-SI8
260P/McNaught,e,15.0583,349.3383,18.4127,3.622908,0.1429283,0.60922265,109.0206,10/12.0/2021,2000,g 13.5,4.0
# From MPEC 2021-J28
261P/Larson,e,6.0746,291.1542,67.1707,3.490249,0.1511539,0.42329571,127.8632,10/12.0/2021,2000,g 14.0,4.0
# From MPC 82322
262P/McNaught-Russell,e,29.2360,217.8780,171.0195,6.873802,0.0546901,0.81582600,176.9747,10/12.0/2021,2000,g 13.5,4.0
# From MPC 89018
263P/Gibbs,e,11.5256,105.6336,34.7552,3.047186,0.1852916,0.59306357,271.8713,10/12.0/2021,2000,g  9.0,4.0
# From MPC114608
264P/Larsen,e,25.1650,220.5727,346.7286,3.893114,0.1283094,0.37503638,102.5579,10/12.0/2021,2000,g 13.0,4.0
# From MPC 79870
265P/LINEAR,e,14.3652,342.9254,33.4395,4.252802,0.1123806,0.64750669,27.5256,10/12.0/2021,2000,g 14.5,4.0
# From MPEC 2021-F20
266P/Christensen,e,3.4270,4.9982,97.7547,3.533513,0.1483864,0.33946798,80.2393,10/12.0/2021,2000,g 14.7,4.0
# From MPC114608
267P/LONEOS,e,6.1397,228.6066,114.1673,3.211626,0.1712445,0.61436442,201.5124,10/12.0/2021,2000,g 19.5,4.0
# From MPC 92277
268P/Bernardi,e,16.0899,127.4988,359.8445,4.544904,0.1017225,0.47655289,240.8775,10/12.0/2021,2000,g 14.0,4.0
# From MPC104795
269P/Jedicke,e,7.0743,241.7154,225.8226,7.075093,0.0523728,0.43059888,134.5999,10/12.0/2021,2000,g 10.0,4.0
# From MPC 88332
270P/Gehrels,e,2.9208,222.9898,209.8052,6.664237,0.0572899,0.46779102,174.6576,10/12.0/2021,2000,g  8.0,4.0
# From MPC 92277
271P/van Houten-Lemmon,e,6.8712,9.3134,36.3845,7.041579,0.0527471,0.39458248,158.9324,10/12.0/2021,2000,g 11.0,4.0
# From MPC 81862
272P/NEAT,e,18.0758,109.4686,27.9199,4.457930,0.1047139,0.45443199,330.8755,10/12.0/2021,2000,g 16.0,2.0
# From MPC 82723
273P/Pons-Gambart,e,136.7945,320.4011,20.3324,31.86871,0.0054784,0.97414793,0.0000,12/18.8988/2012,2000,g 11.5,4.0
# From MPEC 2021-S45
274P/Tombaugh-Tenagra,e,15.8169,81.3406,38.4762,4.373855,0.1077476,0.43913394,340.7671,10/12.0/2021,2000,g 13.0,4.0
# From MPC 81862
275P/Hermann,e,21.2738,348.7569,174.0437,5.773866,0.0710402,0.71240590,228.7728,10/12.0/2021,2000,g 17.0,4.0
# From MPEC 2020-K19
276P/Vorobjov,e,14.8106,211.3837,199.6506,5.319416,0.0803356,0.26734859,266.8315,10/12.0/2021,2000,g 11.5,4.0
# From MPEC 2021-F20
277P/LINEAR,e,16.7773,276.3408,152.3132,3.853268,0.1303047,0.50579953,37.2444,10/12.0/2021,2000,g 15.1,4.0
# From MPEC 2021-S45
278P/McNaught,e,6.6914,15.3853,237.9965,3.693470,0.1388520,0.43570149,54.8667,10/12.0/2021,2000,g 14.0,4.0
# From MPC100285
279P/La Sagra,e,5.0526,346.2347,5.8129,3.573638,0.1458942,0.39860335,279.0938,10/12.0/2021,2000,g 14.0,4.0
# From MPC 89013
280P/Larsen,e,11.7751,131.3930,104.7830,4.529569,0.1022395,0.41749907,292.3467,10/12.0/2021,2000,g 12.5,4.0
# From MPC 83145
281P/MOSS,e,4.7193,87.1789,26.7003,4.872972,0.0916248,0.17205357,316.2031,10/12.0/2021,2000,g 11.0,4.0
# From MPC133426
282P/,e,5.8116,9.2965,217.6316,4.241004,0.1128499,0.18863724,358.5738,10/12.0/2021,2000,g 13.5,2.0
# From MPEC 2021-BE3
283P/Spacewatch,e,14.4552,161.1292,22.2481,4.138562,0.1170657,0.48479851,3.9786,10/12.0/2021,2000,g 16.0,2.0
# From MPEC 2021-TD0
284P/McNaught,e,11.8614,144.2632,202.4439,3.678965,0.1396740,0.37598374,4.0924,10/12.0/2021,2000,g 13.0,4.0
# From MPC 85339
